{
  "type": "FeatureCollection",
  "features": [
    {
      "type": "Feature",
      "properties": {
        "norad_id": 55973,
        "name": "TIANMU-1 03",
        "group": "weather",
        "lat": 32.26234447307239,
        "lon": 153.9164068277904,
        "alt_km": 438.17133819927676,
        "timestamp": "2025-12-21T18:54:58.136049+00:00",
        "meta_object_name": "TIANMU-1 03",
        "meta_object_id": "2023-039A",
        "meta_epoch": "2025-12-21T14:06:01.914624",
        "meta_mean_motion": 15.4116193,
        "meta_eccentricity": 0.00039567,
        "meta_inclination": 97.5106,
        "meta_ra_of_asc_node": 158.4875,
        "meta_arg_of_pericenter": 35.7866,
        "meta_mean_anomaly": 324.3645,
        "meta_ephemeris_type": 0,
        "meta_classification_type": "U",
        "meta_norad_cat_id": 55973,
        "meta_element_set_no": 999,
        "meta_rev_at_epoch": 15342,
        "meta_bstar": 0.00030526294,
        "meta_mean_motion_dot": 0.00012575,
        "meta_mean_motion_ddot": 0,
        "tle_line1": "1 55973U 23039A   25355.58752216  .00012575  00000+0  30526-3 0  9990",
        "tle_line2": "2 55973  97.5106 158.4875 0003956  35.7866 324.3645 15.41161930153428"
      },
      "geometry": {
        "type": "Point",
        "coordinates": [
          153.9164068277904,
          32.26234447307239
        ]
      }
    },
    {
      "type": "Feature",
      "properties": {
        "norad_id": 55974,
        "name": "TIANMU-1 04",
        "group": "weather",
        "lat": 21.970234232673835,
        "lon": -19.070566075085413,
        "alt_km": 443.4931296386958,
        "timestamp": "2025-12-21T18:54:58.136058+00:00",
        "meta_object_name": "TIANMU-1 04",
        "meta_object_id": "2023-039B",
        "meta_epoch": "2025-12-21T13:33:38.304288",
        "meta_mean_motion": 15.41502296,
        "meta_eccentricity": 0.00045944,
        "meta_inclination": 97.5038,
        "meta_ra_of_asc_node": 157.6519,
        "meta_arg_of_pericenter": 29.6149,
        "meta_mean_anomaly": 330.5357,
        "meta_ephemeris_type": 0,
        "meta_classification_type": "U",
        "meta_norad_cat_id": 55974,
        "meta_element_set_no": 999,
        "meta_rev_at_epoch": 15342,
        "meta_bstar": 0.00030061047,
        "meta_mean_motion_dot": 0.00012524,
        "meta_mean_motion_ddot": 0,
        "tle_line1": "1 55974U 23039B   25355.56502667  .00012524  00000+0  30061-3 0  9990",
        "tle_line2": "2 55974  97.5038 157.6519 0004594  29.6149 330.5357 15.41502296153427"
      },
      "geometry": {
        "type": "Point",
        "coordinates": [
          -19.070566075085413,
          21.970234232673835
        ]
      }
    },
    {
      "type": "Feature",
      "properties": {
        "norad_id": 55975,
        "name": "TIANMU-1 05",
        "group": "weather",
        "lat": 2.6597587768578705,
        "lon": -21.27504971401076,
        "alt_km": 447.0882268327623,
        "timestamp": "2025-12-21T18:54:58.136069+00:00",
        "meta_object_name": "TIANMU-1 05",
        "meta_object_id": "2023-039C",
        "meta_epoch": "2025-12-21T13:28:30.188064",
        "meta_mean_motion": 15.41118086,
        "meta_eccentricity": 0.00040807,
        "meta_inclination": 97.5085,
        "meta_ra_of_asc_node": 158.1409,
        "meta_arg_of_pericenter": 54.5491,
        "meta_mean_anomaly": 305.6136,
        "meta_ephemeris_type": 0,
        "meta_classification_type": "U",
        "meta_norad_cat_id": 55975,
        "meta_element_set_no": 999,
        "meta_rev_at_epoch": 15340,
        "meta_bstar": 0.00029741505,
        "meta_mean_motion_dot": 0.00012231,
        "meta_mean_motion_ddot": 0,
        "tle_line1": "1 55975U 23039C   25355.56146051  .00012231  00000+0  29742-3 0  9991",
        "tle_line2": "2 55975  97.5085 158.1409 0004080  54.5491 305.6136 15.41118086153407"
      },
      "geometry": {
        "type": "Point",
        "coordinates": [
          -21.27504971401076,
          2.6597587768578705
        ]
      }
    },
    {
      "type": "Feature",
      "properties": {
        "norad_id": 55976,
        "name": "TIANMU-1 06",
        "group": "weather",
        "lat": 32.22924193917759,
        "lon": -16.382937598467283,
        "alt_km": 440.2104917871284,
        "timestamp": "2025-12-21T18:54:58.136081+00:00",
        "meta_object_name": "TIANMU-1 06",
        "meta_object_id": "2023-039D",
        "meta_epoch": "2025-12-21T13:36:20.662848",
        "meta_mean_motion": 15.41553789,
        "meta_eccentricity": 0.000436,
        "meta_inclination": 97.5096,
        "meta_ra_of_asc_node": 158.6189,
        "meta_arg_of_pericenter": 48.587,
        "meta_mean_anomaly": 311.575,
        "meta_ephemeris_type": 0,
        "meta_classification_type": "U",
        "meta_norad_cat_id": 55976,
        "meta_element_set_no": 999,
        "meta_rev_at_epoch": 15342,
        "meta_bstar": 0.00029831757,
        "meta_mean_motion_dot": 0.00012449,
        "meta_mean_motion_ddot": 0,
        "tle_line1": "1 55976U 23039D   25355.56690582  .00012449  00000+0  29832-3 0  9996",
        "tle_line2": "2 55976  97.5096 158.6189 0004360  48.5870 311.5750 15.41553789153428"
      },
      "geometry": {
        "type": "Point",
        "coordinates": [
          -16.382937598467283,
          32.22924193917759
        ]
      }
    },
    {
      "type": "Feature",
      "properties": {
        "norad_id": 56232,
        "name": "FENGYUN 3G",
        "group": "weather",
        "lat": -12.406840375538113,
        "lon": 170.09394140701127,
        "alt_km": 412.3653033876835,
        "timestamp": "2025-12-21T18:54:58.136091+00:00",
        "meta_object_name": "FENGYUN 3G",
        "meta_object_id": "2023-055A",
        "meta_epoch": "2025-12-21T14:21:24.761664",
        "meta_mean_motion": 15.54132205,
        "meta_eccentricity": 0.0009317,
        "meta_inclination": 49.9916,
        "meta_ra_of_asc_node": 181.7239,
        "meta_arg_of_pericenter": 188.4553,
        "meta_mean_anomaly": 171.6259,
        "meta_ephemeris_type": 0,
        "meta_classification_type": "U",
        "meta_norad_cat_id": 56232,
        "meta_element_set_no": 999,
        "meta_rev_at_epoch": 15240,
        "meta_bstar": 0.0004093558,
        "meta_mean_motion_dot": 0.000268,
        "meta_mean_motion_ddot": 0,
        "tle_line1": "1 56232U 23055A   25355.59820326  .00026800  00000+0  40936-3 0  9998",
        "tle_line2": "2 56232  49.9916 181.7239 0009317 188.4553 171.6259 15.54132205152404"
      },
      "geometry": {
        "type": "Point",
        "coordinates": [
          170.09394140701127,
          -12.406840375538113
        ]
      }
    },
    {
      "type": "Feature",
      "properties": {
        "norad_id": 57166,
        "name": "METEOR-M2 3",
        "group": "weather",
        "lat": 12.023825026750425,
        "lon": -128.97595913875338,
        "alt_km": 815.4419815982192,
        "timestamp": "2025-12-21T18:54:58.136104+00:00",
        "meta_object_name": "METEOR-M2 3",
        "meta_object_id": "2023-091A",
        "meta_epoch": "2025-12-21T14:45:30.015936",
        "meta_mean_motion": 14.24027085,
        "meta_eccentricity": 0.00034219,
        "meta_inclination": 98.6365,
        "meta_ra_of_asc_node": 48.9988,
        "meta_arg_of_pericenter": 341.9215,
        "meta_mean_anomaly": 18.1841,
        "meta_ephemeris_type": 0,
        "meta_classification_type": "U",
        "meta_norad_cat_id": 57166,
        "meta_element_set_no": 999,
        "meta_rev_at_epoch": 12924,
        "meta_bstar": 2.2028838e-05,
        "meta_mean_motion_dot": 7e-08,
        "meta_mean_motion_ddot": 0,
        "tle_line1": "1 57166U 23091A   25355.61493074  .00000007  00000+0  22029-4 0  9999",
        "tle_line2": "2 57166  98.6365  48.9988 0003421 341.9215  18.1841 14.24027085129249"
      },
      "geometry": {
        "type": "Point",
        "coordinates": [
          -128.97595913875338,
          12.023825026750425
        ]
      }
    },
    {
      "type": "Feature",
      "properties": {
        "norad_id": 57399,
        "name": "TIANMU-1 07",
        "group": "weather",
        "lat": 39.245263435982416,
        "lon": -128.56188578739406,
        "alt_km": 477.80137334417395,
        "timestamp": "2025-12-21T18:54:58.136114+00:00",
        "meta_object_name": "TIANMU-1 07",
        "meta_object_id": "2023-101A",
        "meta_epoch": "2025-12-21T15:09:42.463872",
        "meta_mean_motion": 15.28187172,
        "meta_eccentricity": 0.00052416,
        "meta_inclination": 97.2862,
        "meta_ra_of_asc_node": 45.2856,
        "meta_arg_of_pericenter": 59.0298,
        "meta_mean_anomaly": 301.1456,
        "meta_ephemeris_type": 0,
        "meta_classification_type": "U",
        "meta_norad_cat_id": 57399,
        "meta_element_set_no": 999,
        "meta_rev_at_epoch": 13451,
        "meta_bstar": 0.00021479387,
        "meta_mean_motion_dot": 5.83e-05,
        "meta_mean_motion_ddot": 0,
        "tle_line1": "1 57399U 23101A   25355.63174148  .00005830  00000+0  21479-3 0  9995",
        "tle_line2": "2 57399  97.2862  45.2856 0005241  59.0298 301.1456 15.28187172134510"
      },
      "geometry": {
        "type": "Point",
        "coordinates": [
          -128.56188578739406,
          39.245263435982416
        ]
      }
    }
  ]
}